satname,norad_id,inclination_deg,eccentricity,mean_motion_rev_per_day,perigee_km,apogee_km,l1,l2
STARLINK-1402,45685,53.055,0.0001409,15.0642505,546.1590135656143,548.1105551544479,1 45685U 20035AE  25275.70198154  .00009653  00000+0  66563-3 0  9995,2 45685  53.0550  40.2738 0001409  89.6712 270.4439 15.06425050295147
STARLINK-1404,45686,53.0555,0.0001383,15.06388324,546.2895627730722,548.205124082464,1 45686U 20035AF  25275.63068566 -.00000280  00000+0  12813-6 0  9991,2 45686  53.0555  46.1744 0001383  84.1698 275.9449 15.06388324295052
STARLINK-1413,45689,53.0545,0.000115,15.06386896,546.4553003992833,548.0481398049069,1 45689U 20035AJ  25275.71544615  .00002726  00000+0  20191-3 0  9998,2 45689  53.0545  45.7888 0001150  77.3581 282.7537 15.06386896294971
STARLINK-1417,45693,53.0565,0.000168,15.06398636,546.0522791449284,548.3791976650309,1 45693U 20035AN  25275.64543274 -.00001884  00000+0 -10763-3 0  9995,2 45693  53.0565  46.1083 0001680  91.0882 269.0299 15.06398636295042
STARLINK-1420,45695,53.0551,0.0001423,15.06384683,546.2730189549629,548.2439865150418,1 45695U 20035AQ  25275.64632852 -.00002240  00000+0 -13160-3 0  9999,2 45695  53.0551  26.0899 0001423 106.9123 253.2023 15.06384683295339
STARLINK-1422,45696,53.0544,0.0001264,15.0640387,546.3243344125558,548.0750595295503,1 45696U 20035AR  25275.65649579  .00001727  00000+0  13480-3 0  9997,2 45696  53.0544  46.0590 0001264  89.3173 270.7961 15.06403870295047
STARLINK-1351,45697,53.0547,0.0001308,15.06383857,546.355192287202,548.1668764129872,1 45697U 20035AS  25275.63253137  .00000531  00000+0  54592-4 0  9999,2 45697  53.0547  26.1641 0001308 102.0609 258.0527 15.06383857295334
STARLINK-1398,45699,53.0529,0.0002194,15.44635139,430.95611213689335,433.94459786826883,1 45699U 20035AU  25275.51415867  .00051468  00000+0  10895-2 0  9999,2 45699  53.0529 354.7733 0002194 209.9614 150.1267 15.44635139295760
STARLINK-1400,45700,53.0547,0.0001455,15.06385632,546.2479495164725,548.2632387613667,1 45700U 20035AV  25275.67307615  .00013392  00000+0  91656-3 0  9999,2 45700  53.0547  25.9851 0001455  82.4253 277.6902 15.06385632295335
STARLINK-1403,45701,53.056,0.0001189,15.06387813,546.425481205194,548.0723379744941,1 45701U 20035AW  25275.63621743 -.00000224  00000+0  38538-5 0  9990,2 45701  53.0560  26.1487 0001189  88.2595 271.8530 15.06387813295321
STARLINK-1407,45703,53.0431,0.000906,15.36113463,451.4220101267183,463.80839311605723,1 45703U 20035AY  25275.44813079  .00028634  00000+0  80904-3 0  9992,2 45703  53.0431 352.1973 0009060 292.8738  67.1307 15.36113463295790
STARLINK-1411,45706,53.0569,0.0001725,15.32009523,468.6362064699315,470.99875076505396,1 45706U 20035BB  25275.66668980  .00206144  00000+0  64106-2 0  9997,2 45706  53.0569  17.8713 0001725  28.7050 251.5991 15.32009523  5856
STARLINK-1423,45710,53.0559,0.0001517,15.06383607,546.2112175798329,548.3123835759279,1 45710U 20035BF  25275.59568100  .00002976  00000+0  21872-3 0  9998,2 45710  53.0559  26.3321 0001517  94.0247 266.0916 15.06383607295323
STARLINK-1433,45711,53.0542,0.0001477,15.06390466,546.2179001313698,548.2636567271184,1 45711U 20035BG  25275.64359448  .00026376  00000+0  17835-2 0  9991,2 45711  53.0542  26.1154 0001477  86.2018 273.9140 15.06390466295329
STARLINK-1434,45712,53.0523,2.93e-05,15.12953632,526.9958332728693,527.4004859132219,1 45712U 20035BH  25275.62168315  .00075794  00000+0  42213-2 0  9997,2 45712  53.0523  23.9326 0000293 273.2624  86.8334 15.12953632295368
STARLINK-1465,45731,53.0531,0.0001502,15.06416329,546.1213325205963,548.2016921937075,1 45731U 20038B   25275.27867519  .00018405  00000+0  12507-2 0  9993,2 45731  53.0531 227.7523 0001502  77.2779 282.8378 15.06416329292316
STARLINK-1471,45735,53.0503,0.0003919,15.39419091,445.15089523471124,450.5010850263752,1 45735U 20038F   25275.61178700  .00036080  00000+0  91348-3 0  9992,2 45735  53.0503 173.4243 0003919  97.5459 262.5990 15.39419091293118
STARLINK-1474,45738,53.0384,0.0005821,15.62143866,377.5307073247559,385.4002365225697,1 45738U 20038J   25275.33101220  .00095478  00000+0  10605-2 0  9999,2 45738  53.0384 137.2380 0005821 157.3065 202.8206 15.62143866293599
STARLINK-1475,45739,53.053,0.0005945,15.63665861,373.06247601227096,381.0944271842227,1 45739U 20038K   25275.66668980  .00231163  00000+0  23718-2 0  9999,2 45739  53.0530 103.2930 0005945 134.9215  68.8302 15.63665861  5898
STARLINK-1480,45741,53.0523,0.0001576,15.06396044,546.132245691475,548.3151193786098,1 45741U 20038M   25275.59198348  .00010840  00000+0  74556-3 0  9994,2 45741  53.0523 226.3488 0001576  85.6835 274.4334 15.06396044292376
STARLINK-1500,45744,53.0383,0.0005385,15.26013089,484.04772804938693,491.44228296932124,1 45744U 20038Q   25275.10674112  .00041445  00000+0  15939-2 0  9996,2 45744  53.0383 211.5634 0005385 103.9425 256.2172 15.26013089292536
STARLINK-1504,45746,53.0292,0.0006672,15.36041981,453.26631921508215,462.38822994308066,1 45746U 20038S   25275.46226560  .00033499  00000+0  94675-3 0  9992,2 45746  53.0292 176.9101 0006672  78.7125 281.4626 15.36041981293040
STARLINK-1506,45747,53.0516,0.0005082,15.20010732,502.30978997306465,509.3066318854526,1 45747U 20038T   25275.21059493  .00021819  00000+0  10116-2 0  9995,2 45747  53.0516 212.3130 0005082 120.6515 239.4981 15.20010732292534
STARLINK-1464,45751,53.054,0.0001204,15.06396252,546.3892316928604,548.0568583917066,1 45751U 20038X   25275.52747895  .00002199  00000+0  16651-3 0  9995,2 45751  53.0540 206.6365 0001204  94.7059 265.4068 15.06396252292643
STARLINK-1477,45754,53.0524,0.0001385,15.06407766,546.228598890284,548.1469138477987,1 45754U 20038AA  25275.54221660  .00011458  00000+0  78670-3 0  9994,2 45754  53.0524 206.5694 0001385  79.9911 280.1234 15.06407766292646
STARLINK-1478,45755,53.0547,0.0001365,15.06399784,546.2669097787239,548.15753011577,1 45755U 20038AB  25275.09621905 -.00004462  00000+0 -28086-3 0  9996,2 45755  53.0547 208.5729 0001365  95.5248 264.5897 15.06399784292560
STARLINK-1484,45756,53.0175,0.0005215,15.55107508,398.3043768105945,405.3758929622809,1 45756U 20038AC  25274.87727715  .00094677  00000+0  13716-2 0  9996,2 45756  53.0175 126.1282 0005215 129.7137 230.4333 15.55107508293701
STARLINK-1493,45759,53.0527,0.0001944,15.06403842,545.8534973160795,548.5460682572275,1 45759U 20038AF  25275.54959345  .00005575  00000+0  39283-3 0  9997,2 45759  53.0527 206.5379 0001944  88.1334 271.9877 15.06403842292637
